ONEWEB-0338             
1 49204U 21083U   23297.00609458  .00004642  00000+0  11383-1 0  9990
2 49204  87.9149 107.0098 0001539  63.9754 296.1538 13.20746892110442
ONEWEB-0339             
1 49205U 21083V   23296.89981824  .00000430  00000+0  11435-2 0  9997
2 49205  87.9012 152.7124 0001453  79.9120 280.2173 13.13472006103916
ONEWEB-0340             
1 49206U 21083W   23297.16353424  .00000018  00000+0  13011-4 0  9994
2 49206  87.9187 167.8174 0001630  83.7652 276.3666 13.18684930103810
ONEWEB-0341             
1 49207U 21083X   23297.17196699  .00000136  00000+0  31151-3 0  9990
2 49207  87.9270 167.7943 0000897  80.3698 279.7536 13.18685009103837
ONEWEB-0342             
1 49208U 21083Y   23296.93664228  .00000065  00000+0  12753-3 0  9990
2 49208  87.9139 107.0537 0001641  79.9860 280.1459 13.20770291109108
ONEWEB-0343             
1 49209U 21083Z   23297.16774624  .00000067  00000+0  13736-3 0  9993
2 49209  87.9257 167.8229 0000679  54.1087 306.0108 13.18684406103885
ONEWEB-0344             
1 49210U 21083AA  23297.09343856 -.00002297  00000+0 -63250-2 0  9990
2 49210  87.9014 152.6785 0002593  79.9464 280.1958 13.13485107105247
ONEWEB-0345             
1 49211U 21083AB  23297.11141569  .00004659  00000+0  12722-1 0  9990
2 49211  87.9011 152.6626 0001733  95.5280 264.6046 13.13448583105257
